STARLINK-36792          
1 67804U 26032H   26059.15710649 -.00802544  00000+0 -48430-2 0  9998
2 67804  97.2836 245.1855 0001319  98.3012 261.8405 15.79638825  3282
STARLINK-36782          
1 67805U 26032J   26059.09277389  .00192617  00000+0  98159-3 0  9996
2 67805  97.2844 245.1203 0001448  78.3754 281.7676 15.80876296  3271
STARLINK-36389          
1 67806U 26032K   26059.15490656  .00177873  00000+0  90899-3 0  9998
2 67806  97.2840 245.1888 0001653  94.9531 265.1926 15.80853454  3288
STARLINK-36382          
1 67807U 26032L   26059.02733528  .00374127  00000+0  18737-2 0  9994
2 67807  97.2847 245.0556 0001564  84.0005 276.1441 15.80788899  3266
STARLINK-36811          
1 67808U 26032M   26059.15276282  .00233718  00000+0  11836-2 0  9991
2 67808  97.2840 245.1915 0001365  79.1816 280.9606 15.80905899  3283
STARLINK-36795          
1 67809U 26032N   26059.02503212  .00130557  00000+0  66970-3 0  9991
2 67809  97.2845 245.0586 0001278 101.4485 258.6927 15.80897303  3262
STARLINK-36807          
1 67810U 26032P   26059.08740493  .00222401  00000+0  11277-2 0  9992
2 67810  97.2833 245.1270 0001699  74.6491 285.4965 15.80909130  3270
STARLINK-36733          
1 67811U 26032Q   26059.14946173  .00272126  00000+0  13703-2 0  9998
2 67811  97.2835 245.1952 0001776  86.0813 274.0658 15.80932528  3282
STARLINK-36377          
1 67812U 26032R   26058.95638741  .00344691  00000+0  17228-2 0  9999
2 67812  97.2831 244.9991 0001576  51.7884 308.3526 15.80908811  3254
STARLINK-36732          
1 67813U 26032S   26059.02066361  .00237709  00000+0  12047-2 0  9997
2 67813  97.2830 245.0632 0002394  80.6711 279.4827 15.80878493  3262
STARLINK-36767          
1 67814U 26032T   26059.02160424  .00011279  00000+0  59559-4 0  9996
2 67814  97.2828 245.0620 0001554  95.3962 264.7483 15.80811433  3261
STARLINK-36797          
1 67815U 26032U   26059.01846862  .00245118  00000+0  12403-2 0  9999
2 67815  97.2833 245.0673 0002120  77.9304 282.2202 15.80894267  3262
